{
    "links": {
        "self": "http://www.neowsapp.com/rest/v1/neo/3748361?api_key=iIulBulltgU6a56xZRHN4H3l9WmuAYTsLGpBGhQ2"
    },
    "id": "3748361",
    "neo_reference_id": "3748361",
    "name": "(2016 FB12)",
    "designation": "2016 FB12",
    "nasa_jpl_url": "http://ssd.jpl.nasa.gov/sbdb.cgi?sstr=3748361",
    "absolute_magnitude_h": 26.0,
    "estimated_diameter": {
        "kilometers": {
            "estimated_diameter_min": 0.0167708462,
            "estimated_diameter_max": 0.0375007522
        },
        "meters": {
            "estimated_diameter_min": 16.7708462163,
            "estimated_diameter_max": 37.5007521798
        },
        "miles": {
            "estimated_diameter_min": 0.0104209175,
            "estimated_diameter_max": 0.0233018799
        },
        "feet": {
            "estimated_diameter_min": 55.0224631002,
            "estimated_diameter_max": 123.0339677816
        }
    },
    "is_potentially_hazardous_asteroid": false,
    "close_approach_data": [
        {
            "close_approach_date": "2012-12-19",
            "close_approach_date_full": "2012-Dec-19 04:43",
            "epoch_date_close_approach": 1355892180000,
            "relative_velocity": {
                "kilometers_per_second": "14.2505771646",
                "kilometers_per_hour": "51302.0777926475",
                "miles_per_hour": "31877.1160595481"
            },
            "miss_distance": {
                "astronomical": "0.3585585783",
                "lunar": "139.4792869587",
                "kilometers": "53639599.583908221",
                "miles": "33330101.6440906098"
            },
            "orbiting_body": "Earth"
        },
        {
            "close_approach_date": "2016-03-15",
            "close_approach_date_full": "2016-Mar-15 10:49",
            "epoch_date_close_approach": 1458038940000,
            "relative_velocity": {
                "kilometers_per_second": "6.2433166186",
                "kilometers_per_hour": "22475.9398271162",
                "miles_per_hour": "13965.6749442434"
            },
            "miss_distance": {
                "astronomical": "0.0275802651",
                "lunar": "10.7287231239",
                "kilometers": "4125948.912995337",
                "miles": "2563745.7720641706"
            },
            "orbiting_body": "Earth"
        },
        {
            "close_approach_date": "2019-04-18",
            "close_approach_date_full": "2019-Apr-18 19:32",
            "epoch_date_close_approach": 1555615920000,
            "relative_velocity": {
                "kilometers_per_second": "19.2570585133",
                "kilometers_per_hour": "69325.4106478451",
                "miles_per_hour": "43076.1141883791"
            },
            "miss_distance": {
                "astronomical": "0.4907125932",
                "lunar": "190.8871987548",
                "kilometers": "73409558.724896484",
                "miles": "45614584.6152561192"
            },
            "orbiting_body": "Earth"
        }
    ],
    "orbital_data": {
        "orbit_id": "4",
        "orbit_determination_date": "2017-04-06 08:27:14",
        "first_observation_date": "2016-03-28",
        "last_observation_date": "2016-04-01",
        "data_arc_in_days": 4,
        "observations_used": 12,
        "orbit_uncertainty": "8",
        "minimum_orbit_intersection": ".0260198",
        "jupiter_tisserand_invariant": "4.872",
        "epoch_osculation": "2457476.5",
        "eccentricity": ".2642860815610491",
        "semi_major_axis": "1.332653894253801",
        "inclination": "7.737790379776813",
        "ascending_node_longitude": ".4100562783676639",
        "orbital_period": "561.9199949020571",
        "perihelion_distance": ".9804520184643912",
        "perihelion_argument": "140.2160937250243",
        "aphelion_distance": "1.684855770043211",
        "perihelion_time": "2457432.567100459484",
        "mean_anomaly": "28.14607769446337",
        "mean_motion": ".6406605980674316",
        "equinox": "J2000",
        "orbit_class": {
            "orbit_class_type": "APO",
            "orbit_class_description": "Near-Earth asteroid orbits which cross the Earth’s orbit similar to that of 1862 Apollo",
            "orbit_class_range": "a (semi-major axis) > 1.0 AU; q (perihelion) < 1.017 AU"
        }
    },
    "is_sentry_object": false
}